     2.11           N: GPS NAV DATA                         RINEX VERSION / TYPE
teqc  2019Feb25                         20221121 12:25:22UTCPGM / RUN BY / DATE
OSX ker:10.11.6|Core i5|gcc 4.3 -m64|OSX ker:10.10+|=+      COMMENT
    4.6566D-09  1.4901D-08 -5.9605D-08 -1.1921D-07          ION ALPHA
    7.9872D+04  8.1920D+04 -6.5536D+04 -4.5875D+05          ION BETA
   -2.793967723846D-09-1.332267629550D-14    61440     1541 DELTA-UTC: A0,A1,T,W
                                                            END OF HEADER
 8 09  7 18 23 59 44.0-2.125506289303D-04-1.818989403546D-12 0.000000000000D+00
    2.700000000000D+01-1.187500000000D+02 3.870161207749D-09-3.036342196069D-01
   -6.251037120819D-06 1.072842790745D-02 5.668029189110D-06 5.153635868073D+03
    6.047840000000D+05 1.695007085800D-07 1.927459623939D+00-4.656612873077D-08
    9.890993298772D-01 2.804062500000D+02 2.999223925281D+00-7.961045895231D-09
   -3.928735076157D-12 1.000000000000D+00 1.540000000000D+03 0.000000000000D+00
    2.000000000000D+00 0.000000000000D+00-3.725290298462D-09 2.700000000000D+01
    5.976180000000D+05 4.000000000000D+00
